{"type": "FeatureCollection", "features": [ {"type": "Feature", "properties": {"norad_id": 51444, "name": "CSG-2", "group": "resource", "lat": 44.416049200509136, "lon": -4.628045916416222, "alt_km": 618.0802317317311, "timestamp": "2025-12-12T05:47:28.429819+00:00", "meta": {"OBJECT_NAME": "CSG-2", "OBJECT_ID": "2022-008A", "EPOCH": "2025-12-12T00:19:25.519584", "MEAN_MOTION": 14.82165088, "ECCENTRICITY": 0.00015391, "INCLINATION": 97.8808, "RA_OF_ASC_NODE": 167.3475, "ARG_OF_PERICENTER": 83.9415, "MEAN_ANOMALY": 276.1973, "EPHEMERIS_TYPE": 0, "CLASSIFICATION_TYPE": "U", "NORAD_CAT_ID": 51444, "ELEMENT_SET_NO": 999, "REV_AT_EPOCH": 20886, "BSTAR": 0.0001906229, "MEAN_MOTION_DOT": 1.466e-05, "MEAN_MOTION_DDOT": 0}, "tle": {"line1": "1 51444U 22008A   25346.01348981  .00001466  00000+0  19062-3 0  9991", "line2": "2 51444  97.8808 167.3475 0001539  83.9415 276.1973 14.82165088208863"}}, "geometry": {"type": "Point", "coordinates": [-4.628045916416222, 44.416049200509136]}}, {"type": "Feature", "properties": {"norad_id": 52912, "name": "GAOFEN-12 03", "group": "resource", "lat": 55.20810173600382, "lon": -137.84786376717224, "alt_km": 623.7900161349398, "timestamp": "2025-12-12T05:47:28.429830+00:00", "meta": {"OBJECT_NAME": "GAOFEN-12 03", "OBJECT_ID": "2022-069A", "EPOCH": "2025-12-11T23:02:49.068096", "MEAN_MOTION": 14.79606586, "ECCENTRICITY": 0.00022026, "INCLINATION": 97.8478, "RA_OF_ASC_NODE": 233.3275, "ARG_OF_PERICENTER": 62.8782, "MEAN_ANOMALY": 297.2654, "EPHEMERIS_TYPE": 0, "CLASSIFICATION_TYPE": "U", "NORAD_CAT_ID": 52912, "ELEMENT_SET_NO": 999, "REV_AT_EPOCH": 18692, "BSTAR": 0.00029039225, "MEAN_MOTION_DOT": 2.126e-05, "MEAN_MOTION_DDOT": 0}, "tle": {"line1": "1 52912U 22069A   25345.96029014  .00002126  00000+0  29039-3 0  9994", "line2": "2 52912  97.8478 233.3275 0002202  62.8782 297.2654 14.79606586186921"}}, "geometry": {"type": "Point", "coordinates": [-137.84786376717224, 55.20810173600382]}}, {"type": "Feature", "properties": {"norad_id": 54754, "name": "SWOT", "group": "resource", "lat": 5.959186093297264, "lon": 106.34778382551343, "alt_km": 895.0108927848732, "timestamp": "2025-12-12T05:47:28.429840+00:00", "meta": {"OBJECT_NAME": "SWOT", "OBJECT_ID": "2022-173A", "EPOCH": "2025-12-11T23:49:09.406272", "MEAN_MOTION": 14.00174518, "ECCENTRICITY": 3.347e-05, "INCLINATION": 77.6106, "RA_OF_ASC_NODE": 287.9983, "ARG_OF_PERICENTER": 113.3645, "MEAN_ANOMALY": 246.7542, "EPHEMERIS_TYPE": 0, "CLASSIFICATION_TYPE": "U", "NORAD_CAT_ID": 54754, "ELEMENT_SET_NO": 999, "REV_AT_EPOCH": 15295, "BSTAR": 4.4055579e-05, "MEAN_MOTION_DOT": 6.2e-07, "MEAN_MOTION_DDOT": 0}, "tle": {"line1": "1 54754U 22173A   25345.99246998  .00000062  00000+0  44056-4 0  9995", "line2": "2 54754  77.6106 287.9983 0000334 113.3645 246.7542 14.00174518152956"}}, "geometry": {"type": "Point", "coordinates": [106.34778382551343, 5.959186093297264]}}, {"type": "Feature", "properties": {"norad_id": 57654, "name": "GAOFEN-12 04", "group": "resource", "lat": -45.03400674191067, "lon": 74.00292536731985, "alt_km": 637.8463934854672, "timestamp": "2025-12-12T05:47:28.429850+00:00", "meta": {"OBJECT_NAME": "GAOFEN-12 04", "OBJECT_ID": "2023-123A", "EPOCH": "2025-12-11T23:54:23.304384", "MEAN_MOTION": 14.79697278, "ECCENTRICITY": 0.00013347, "INCLINATION": 97.9116, "RA_OF_ASC_NODE": 261.7646, "ARG_OF_PERICENTER": 74.3989, "MEAN_ANOMALY": 285.737, "EPHEMERIS_TYPE": 0, "CLASSIFICATION_TYPE": "U", "NORAD_CAT_ID": 57654, "ELEMENT_SET_NO": 999, "REV_AT_EPOCH": 12494, "BSTAR": 0.00033293012, "MEAN_MOTION_DOT": 2.449e-05, "MEAN_MOTION_DDOT": 0}, "tle": {"line1": "1 57654U 23123A   25345.99610306  .00002449  00000+0  33293-3 0  9992", "line2": "2 57654  97.9116 261.7646 0001334  74.3989 285.7370 14.79697278124947"}}, "geometry": {"type": "Point", "coordinates": [74.00292536731985, -45.03400674191067]}}, {"type": "Feature", "properties": {"norad_id": 59065, "name": "PARS 1", "group": "resource", "lat": 27.148599072247496, "lon": 141.018521946255, "alt_km": 440.656336163539, "timestamp": "2025-12-12T05:47:28.429860+00:00", "meta": {"OBJECT_NAME": "PARS 1", "OBJECT_ID": "2024-039Q", "EPOCH": "2025-12-12T00:27:26.417664", "MEAN_MOTION": 15.40947844, "ECCENTRICITY": 0.0012598, "INCLINATION": 97.4636, "RA_OF_ASC_NODE": 316.9368, "ARG_OF_PERICENTER": 74.3977, "MEAN_ANOMALY": 285.8659, "EPHEMERIS_TYPE": 0, "CLASSIFICATION_TYPE": "U", "NORAD_CAT_ID": 59065, "ELEMENT_SET_NO": 999, "REV_AT_EPOCH": 9977, "BSTAR": 0.0004018737, "MEAN_MOTION_DOT": 0.00016515, "MEAN_MOTION_DDOT": 0}, "tle": {"line1": "1 59065U 24039Q   25346.01905576  .00016515  00000+0  40187-3 0  9996", "line2": "2 59065  97.4636 316.9368 0012598  74.3977 285.8659 15.40947844 99771"}}, "geometry": {"type": "Point", "coordinates": [141.018521946255, 27.148599072247496]}}, {"type": "Feature", "properties": {"norad_id": 59371, "name": "RESURS-P 4", "group": "resource", "lat": -49.20883456545524, "lon": -58.92971253176264, "alt_km": 476.75463861295975, "timestamp": "2025-12-12T05:47:28.429870+00:00", "meta": {"OBJECT_NAME": "RESURS-P 4", "OBJECT_ID": "2024-061A", "EPOCH": "2025-12-11T23:44:16.537920", "MEAN_MOTION": 15.32075702, "ECCENTRICITY": 0.00015631, "INCLINATION": 97.254, "RA_OF_ASC_NODE": 292.3346, "ARG_OF_PERICENTER": 52.3854, "MEAN_ANOMALY": 307.753, "EPHEMERIS_TYPE": 0, "CLASSIFICATION_TYPE": "U", "NORAD_CAT_ID": 59371, "ELEMENT_SET_NO": 999, "REV_AT_EPOCH": 9509, "BSTAR": 0.00019982347, "MEAN_MOTION_DOT": 6.112e-05, "MEAN_MOTION_DDOT": 0}, "tle": {"line1": "1 59371U 24061A   25345.98908030  .00006112  00000+0  19982-3 0  9995", "line2": "2 59371  97.2540 292.3346 0001563  52.3854 307.7530 15.32075702 95095"}}, "geometry": {"type": "Point", "coordinates": [-58.92971253176264, -49.20883456545524]}}, {"type": "Feature", "properties": {"norad_id": 59625, "name": "LEGION 1", "group": "resource", "lat": -23.19615528668668, "lon": -122.36203919838874, "alt_km": 523.325221371967, "timestamp": "2025-12-12T05:47:28.429881+00:00", "meta": {"OBJECT_NAME": "LEGION 1", "OBJECT_ID": "2024-081A", "EPOCH": "2025-12-12T00:08:46.735008", "MEAN_MOTION": 15.16469285, "ECCENTRICITY": 0.00039832, "INCLINATION": 97.5212, "RA_OF_ASC_NODE": 60.6504, "ARG_OF_PERICENTER": 321.9003, "MEAN_ANOMALY": 38.1948, "EPHEMERIS_TYPE": 0, "CLASSIFICATION_TYPE": "U", "NORAD_CAT_ID": 59625, "ELEMENT_SET_NO": 999, "REV_AT_EPOCH": 8916, "BSTAR": 0.00039653198, "MEAN_MOTION_DOT": 7.654e-05, "MEAN_MOTION_DDOT": 0}, "tle": {"line1": "1 59625U 24081A   25346.00609647  .00007654  00000+0  39653-3 0  9994", "line2": "2 59625  97.5212  60.6504 0003983 321.9003  38.1948 15.16469285 89161"}}, "geometry": {"type": "Point", "coordinates": [-122.36203919838874, -23.19615528668668]}}, {"type": "Feature", "properties": {"norad_id": 59626, "name": "LEGION 2", "group": "resource", "lat": 22.8141773986347, "lon": 57.78480655392397, "alt_km": 515.9935278098283, "timestamp": "2025-12-12T05:47:28.429891+00:00", "meta": {"OBJECT_NAME": "LEGION 2", "OBJECT_ID": "2024-081B", "EPOCH": "2025-12-11T21:46:19.050816", "MEAN_MOTION": 15.16477995, "ECCENTRICITY": 0.00057782, "INCLINATION": 97.5212, "RA_OF_ASC_NODE": 60.6395, "ARG_OF_PERICENTER": 296.9578, "MEAN_ANOMALY": 63.1065, "EPHEMERIS_TYPE": 0, "CLASSIFICATION_TYPE": "U", "NORAD_CAT_ID": 59626, "ELEMENT_SET_NO": 999, "REV_AT_EPOCH": 8915, "BSTAR": 0.00041609596, "MEAN_MOTION_DOT": 8.039e-05, "MEAN_MOTION_DDOT": 0}, "tle": {"line1": "1 59626U 24081B   25345.90716494  .00008039  00000+0  41610-3 0  9996", "line2": "2 59626  97.5212  60.6395 0005778 296.9578  63.1065 15.16477995 89156"}}, "geometry": {"type": "Point", "coordinates": [57.78480655392397, 22.8141773986347]}}, {"type": "Feature", "properties": {"norad_id": 60182, "name": "ALOS-4 (DAICHI-4)", "group": "resource", "lat": 71.61609250723501, "lon": -74.13263059853772, "alt_km": 623.0611216391235, "timestamp": "2025-12-12T05:47:28.429901+00:00", "meta": {"OBJECT_NAME": "ALOS-4 (DAICHI-4)", "OBJECT_ID": "2024-123A", "EPOCH": "2025-12-10T20:50:51.532800", "MEAN_MOTION": 14.79478132, "ECCENTRICITY": 0.0001419, "INCLINATION": 97.9225, "RA_OF_ASC_NODE": 79.7424, "ARG_OF_PERICENTER": 101.2045, "MEAN_ANOMALY": 258.9326, "EPHEMERIS_TYPE": 0, "CLASSIFICATION_TYPE": "U", "NORAD_CAT_ID": 60182, "ELEMENT_SET_NO": 999, "REV_AT_EPOCH": 7803, "BSTAR": 0.00039567, "MEAN_MOTION_DOT": 2.905e-05, "MEAN_MOTION_DDOT": 0}, "tle": {"line1": "1 60182U 24123A   25344.86865200  .00002905  00000+0  39567-3 0  9990", "line2": "2 60182  97.9225  79.7424 0001419 101.2045 258.9326 14.79478132 78033"}}, "geometry": {"type": "Point", "coordinates": [-74.13263059853772, 71.61609250723501]}}, {"type": "Feature", "properties": {"norad_id": 60452, "name": "LEGION 3", "group": "resource", "lat": 40.95311558531641, "lon": 13.077463962772176, "alt_km": 518.7071850708226, "timestamp": "2025-12-12T05:47:28.429912+00:00", "meta": {"OBJECT_NAME": "LEGION 3", "OBJECT_ID": "2024-146A", "EPOCH": "2025-12-11T23:09:53.997120", "MEAN_MOTION": 15.15747852, "ECCENTRICITY": 0.0014796, "INCLINATION": 45.0018, "RA_OF_ASC_NODE": 314.2851, "ARG_OF_PERICENTER": 194.5448, "MEAN_ANOMALY": 165.5007, "EPHEMERIS_TYPE": 0, "CLASSIFICATION_TYPE": "U", "NORAD_CAT_ID": 60452, "ELEMENT_SET_NO": 999, "REV_AT_EPOCH": 7361, "BSTAR": 0.00041411498, "MEAN_MOTION_DOT": 7.795e-05, "MEAN_MOTION_DDOT": 0}, "tle": {"line1": "1 60452U 24146A   25345.96520830  .00007795  00000+0  41411-3 0  9997", "line2": "2 60452  45.0018 314.2851 0014796 194.5448 165.5007 15.15747852 73619"}}, "geometry": {"type": "Point", "coordinates": [13.077463962772176, 40.95311558531641]}}]}